[{"OBJECT_NAME":"R5-S4","OBJECT_ID":"2024-125D","EPOCH":"2026-03-09T13:51:31.394016","MEAN_MOTION":15.40102562,"ECCENTRICITY":0.0016308,"INCLINATION":97.252,"RA_OF_ASC_NODE":280.5395,"ARG_OF_PERICENTER":228.9826,"MEAN_ANOMALY":131.0011,"EPHEMERIS_TYPE":0,"CLASSIFICATION_TYPE":"U","NORAD_CAT_ID":60206,"ELEMENT_SET_NO":999,"REV_AT_EPOCH":9378,"BSTAR":0.00042135,"MEAN_MOTION_DOT":0.00016878,"MEAN_MOTION_DDOT":0},{"OBJECT_NAME":"STARLINK-34003","OBJECT_ID":"2025-094U","EPOCH":"2026-03-09T17:01:34.865184","MEAN_MOTION":15.42711308,"ECCENTRICITY":0.00038112,"INCLINATION":70.0011,"RA_OF_ASC_NODE":205.2375,"ARG_OF_PERICENTER":288.4816,"MEAN_ANOMALY":71.5951,"EPHEMERIS_TYPE":0,"CLASSIFICATION_TYPE":"U","NORAD_CAT_ID":63882,"ELEMENT_SET_NO":999,"REV_AT_EPOCH":4793,"BSTAR":0.0018682176,"MEAN_MOTION_DOT":0.00082547,"MEAN_MOTION_DDOT":0}]
